[{"OBJECT_NAME":"RESURS-P 4","OBJECT_ID":"2024-061A","EPOCH":"2026-03-10T00:09:50.865408","MEAN_MOTION":15.32930455,"ECCENTRICITY":0.00024315,"INCLINATION":97.2654,"RA_OF_ASC_NODE":18.6595,"ARG_OF_PERICENTER":59.481,"MEAN_ANOMALY":300.6672,"EPHEMERIS_TYPE":0,"CLASSIFICATION_TYPE":"U","NORAD_CAT_ID":59371,"ELEMENT_SET_NO":999,"REV_AT_EPOCH":10857,"BSTAR":0.00016169192,"MEAN_MOTION_DOT":5.066e-5,"MEAN_MOTION_DDOT":0},{"OBJECT_NAME":"STARLINK-34537","OBJECT_ID":"2025-147Z","EPOCH":"2026-03-09T17:11:47.690016","MEAN_MOTION":15.30203721,"ECCENTRICITY":8.348e-5,"INCLINATION":53.1565,"RA_OF_ASC_NODE":219.7468,"ARG_OF_PERICENTER":90.4465,"MEAN_ANOMALY":269.6632,"EPHEMERIS_TYPE":0,"CLASSIFICATION_TYPE":"U","NORAD_CAT_ID":64778,"ELEMENT_SET_NO":999,"REV_AT_EPOCH":3910,"BSTAR":0.00097442014,"MEAN_MOTION_DOT":0.00028615,"MEAN_MOTION_DDOT":0}]
